STARLINK-37218
1 68403U 26102.87390046  1.38715-3 7.11500-4 0 0                     
2 68403  97.2836 244.3536 0001141  64.9627 295.1760 15.80876795      
STARLINK-37188
1 68404U 26102.81135417  2.61391-3 1.31880-3 0 0                     
2 68404  97.2835 244.2849 0001425  55.5099 304.6304 15.80916364      
SHIYAN-33
1 68405U 26102.70668981  3.45800-5 1.48330-4 0 0                     
2 68405  97.4647 178.5682 0014508 170.6704 189.4805 15.23319458      
LPNTSAT-001 (IOD-1)
1 68408U 26101.12192130  2.16800-5 1.08673-4 0 0                     
2 68408  97.4111 343.0283 0015645 234.6093 125.3680 15.18311040      
LPNTSAT-002 (IOD-2)
1 68409U 26102.63747685  4.30700-5 2.12190-4 0 0                     
2 68409  97.4099 344.5115 0012833 223.3371 136.6855 15.18412840      
XINZHENGCHENG-01
1 68412U 26102.88079861  4.10000-6 4.07150-5 0 0                     
2 68412  84.9622 269.2947 0027370 118.8616 241.5360 14.88349361      
STARLINK-37262
1 68508U 26102.83334491  2.00390-3 1.00010-3 0 0                     
2 68508  53.1597 338.2126 0001064  87.1048  66.9467 15.80770060      
STARLINK-36292
1 68509U 26102.83334491  1.98192-3 9.89360-4 0 0                     
2 68509  53.1595 338.2037 0001041  86.9320  71.3909 15.80772359      
STARLINK-37260
1 68510U 26102.83334491  1.89706-3 9.47990-4 0 0                     
2 68510  53.1597 338.1946 0001033  88.5102  74.0839 15.80774522      
STARLINK-37280
1 68511U 26102.83334491  1.80452-3 9.02820-4 0 0                     
2 68511  53.1596 338.1859 0000975  88.7996  78.0663 15.80776342      
STARLINK-37286
1 68512U 26102.83334491  1.86212-3 9.31100-4 0 0                     
2 68512  53.1597 338.1769 0000957  86.6048  84.5355 15.80771769      
STARLINK-36250
1 68513U 26102.83334491  1.76508-3 8.83520-4 0 0                     
2 68513  53.1596 338.1684 0000932  90.1610  85.2495 15.80777476      
STARLINK-37251
1 68514U 26102.83334491  2.14453-3 1.06850-3 0 0                     
2 68514  53.1596 338.1595 0001080  84.6787  95.0035 15.80766488      
STARLINK-36293
1 68515U 26102.83334491  1.92704-3 9.62640-4 0 0                     
2 68515  53.1596 338.1511 0001002  87.7597  96.1943 15.80773186      
ELECTRON KICK STAGE R/B
1 68411U 26102.52798611  2.13831-2 1.03370-3 0 0                     
2 68411  97.4050 346.0755 0085546 329.4629  30.1690 16.12728971      
2026-066C
1 68414U 26102.87979167  9.15000-6 9.46180-5 0 0                     
2 68414  84.9622 269.2937 0027963 119.6821 240.7191 14.88508255      
2026-066D
1 68415U 26102.88037037  9.14000-6 9.46860-5 0 0                     
2 68415  84.9621 269.2942 0027391 119.3911 241.0052 14.88422340      
