[{"OBJECT_NAME":"STARLINK-37218","OBJECT_ID":"2026-063Z","EPOCH":"2026-04-12T20:58:25.963968","MEAN_MOTION":15.80876795,"ECCENTRICITY":0.0001141,"INCLINATION":97.2836,"RA_OF_ASC_NODE":244.3536,"ARG_OF_PERICENTER":64.9627,"MEAN_ANOMALY":295.176,"EPHEMERIS_TYPE":0,"CLASSIFICATION_TYPE":"U","NORAD_CAT_ID":68403,"ELEMENT_SET_NO":999,"REV_AT_EPOCH":302,"BSTAR":0.0007115,"MEAN_MOTION_DOT":0.00138715,"MEAN_MOTION_DDOT":0},{"OBJECT_NAME":"STARLINK-37188","OBJECT_ID":"2026-063AA","EPOCH":"2026-04-12T19:28:21.740736","MEAN_MOTION":15.80916364,"ECCENTRICITY":0.0001425,"INCLINATION":97.2835,"RA_OF_ASC_NODE":244.2849,"ARG_OF_PERICENTER":55.5099,"MEAN_ANOMALY":304.6304,"EPHEMERIS_TYPE":0,"CLASSIFICATION_TYPE":"U","NORAD_CAT_ID":68404,"ELEMENT_SET_NO":999,"REV_AT_EPOCH":301,"BSTAR":0.0013188,"MEAN_MOTION_DOT":0.00261391,"MEAN_MOTION_DDOT":0},{"OBJECT_NAME":"SHIYAN-33","OBJECT_ID":"2026-064A","EPOCH":"2026-04-12T16:57:38.628576","MEAN_MOTION":15.23319458,"ECCENTRICITY":0.0014508,"INCLINATION":97.4647,"RA_OF_ASC_NODE":178.5682,"ARG_OF_PERICENTER":170.6704,"MEAN_ANOMALY":189.4805,"EPHEMERIS_TYPE":0,"CLASSIFICATION_TYPE":"U","NORAD_CAT_ID":68405,"ELEMENT_SET_NO":999,"REV_AT_EPOCH":252,"BSTAR":0.00014833,"MEAN_MOTION_DOT":3.458e-5,"MEAN_MOTION_DDOT":0},{"OBJECT_NAME":"LPNTSAT-001 (IOD-1)","OBJECT_ID":"2026-065A","EPOCH":"2026-04-11T02:55:34.142880","MEAN_MOTION":15.1831104,"ECCENTRICITY":0.00156458,"INCLINATION":97.4111,"RA_OF_ASC_NODE":343.0283,"ARG_OF_PERICENTER":234.6093,"MEAN_ANOMALY":125.368,"EPHEMERIS_TYPE":0,"CLASSIFICATION_TYPE":"U","NORAD_CAT_ID":68408,"ELEMENT_SET_NO":999,"REV_AT_EPOCH":208,"BSTAR":0.00010867281,"MEAN_MOTION_DOT":2.168e-5,"MEAN_MOTION_DDOT":0},{"OBJECT_NAME":"LPNTSAT-002 (IOD-2)","OBJECT_ID":"2026-065B","EPOCH":"2026-04-12T15:17:58.303104","MEAN_MOTION":15.1841284,"ECCENTRICITY":0.0012833,"INCLINATION":97.4099,"RA_OF_ASC_NODE":344.5115,"ARG_OF_PERICENTER":223.3371,"MEAN_ANOMALY":136.6855,"EPHEMERIS_TYPE":0,"CLASSIFICATION_TYPE":"U","NORAD_CAT_ID":68409,"ELEMENT_SET_NO":999,"REV_AT_EPOCH":229,"BSTAR":0.00021219,"MEAN_MOTION_DOT":4.307e-5,"MEAN_MOTION_DDOT":0},{"OBJECT_NAME":"ELECTRON KICK STAGE R/B","OBJECT_ID":"2026-065D","EPOCH":"2026-04-12T12:40:18.609888","MEAN_MOTION":16.12728971,"ECCENTRICITY":0.0085546,"INCLINATION":97.405,"RA_OF_ASC_NODE":346.0755,"ARG_OF_PERICENTER":329.4629,"MEAN_ANOMALY":30.169,"EPHEMERIS_TYPE":0,"CLASSIFICATION_TYPE":"U","NORAD_CAT_ID":68411,"ELEMENT_SET_NO":999,"REV_AT_EPOCH":241,"BSTAR":0.0010337,"MEAN_MOTION_DOT":0.02138307,"MEAN_MOTION_DDOT":2.5098e-6},{"OBJECT_NAME":"XINZHENGCHENG-01","OBJECT_ID":"2026-066A","EPOCH":"2026-04-12T21:08:21.749856","MEAN_MOTION":14.88349361,"ECCENTRICITY":0.002737,"INCLINATION":84.9622,"RA_OF_ASC_NODE":269.2947,"ARG_OF_PERICENTER":118.8616,"MEAN_ANOMALY":241.536,"EPHEMERIS_TYPE":0,"CLASSIFICATION_TYPE":"U","NORAD_CAT_ID":68412,"ELEMENT_SET_NO":999,"REV_AT_EPOCH":201,"BSTAR":4.0715e-5,"MEAN_MOTION_DOT":4.1e-6,"MEAN_MOTION_DDOT":0},{"OBJECT_NAME":"2026-066C","OBJECT_ID":"2026-066C","EPOCH":"2026-04-12T21:06:54.036576","MEAN_MOTION":14.88508255,"ECCENTRICITY":0.0027963,"INCLINATION":84.9622,"RA_OF_ASC_NODE":269.2937,"ARG_OF_PERICENTER":119.6821,"MEAN_ANOMALY":240.7191,"EPHEMERIS_TYPE":0,"CLASSIFICATION_TYPE":"U","NORAD_CAT_ID":68414,"ELEMENT_SET_NO":999,"REV_AT_EPOCH":201,"BSTAR":9.4618e-5,"MEAN_MOTION_DOT":9.15e-6,"MEAN_MOTION_DDOT":0},{"OBJECT_NAME":"2026-066D","OBJECT_ID":"2026-066D","EPOCH":"2026-04-12T21:07:44.933952","MEAN_MOTION":14.8842234,"ECCENTRICITY":0.0027391,"INCLINATION":84.9621,"RA_OF_ASC_NODE":269.2942,"ARG_OF_PERICENTER":119.3911,"MEAN_ANOMALY":241.0052,"EPHEMERIS_TYPE":0,"CLASSIFICATION_TYPE":"U","NORAD_CAT_ID":68415,"ELEMENT_SET_NO":999,"REV_AT_EPOCH":201,"BSTAR":9.4686e-5,"MEAN_MOTION_DOT":9.14e-6,"MEAN_MOTION_DDOT":0},{"OBJECT_NAME":"STARLINK-37262","OBJECT_ID":"2026-068A","EPOCH":"2026-04-12T20:00:01.999008","MEAN_MOTION":15.8077006,"ECCENTRICITY":0.0001064,"INCLINATION":53.1597,"RA_OF_ASC_NODE":338.2126,"ARG_OF_PERICENTER":87.1048,"MEAN_ANOMALY":66.9467,"EPHEMERIS_TYPE":0,"CLASSIFICATION_TYPE":"U","NORAD_CAT_ID":68508,"ELEMENT_SET_NO":999,"REV_AT_EPOCH":330,"BSTAR":0.0010001,"MEAN_MOTION_DOT":0.0020039,"MEAN_MOTION_DDOT":0},{"OBJECT_NAME":"STARLINK-36292","OBJECT_ID":"2026-068B","EPOCH":"2026-04-12T20:00:01.999008","MEAN_MOTION":15.80772359,"ECCENTRICITY":0.0001041,"INCLINATION":53.1595,"RA_OF_ASC_NODE":338.2037,"ARG_OF_PERICENTER":86.932,"MEAN_ANOMALY":71.3909,"EPHEMERIS_TYPE":0,"CLASSIFICATION_TYPE":"U","NORAD_CAT_ID":68509,"ELEMENT_SET_NO":999,"REV_AT_EPOCH":325,"BSTAR":0.00098936,"MEAN_MOTION_DOT":0.00198192,"MEAN_MOTION_DDOT":0},{"OBJECT_NAME":"STARLINK-37260","OBJECT_ID":"2026-068C","EPOCH":"2026-04-12T20:00:01.999008","MEAN_MOTION":15.80774522,"ECCENTRICITY":0.0001033,"INCLINATION":53.1597,"RA_OF_ASC_NODE":338.1946,"ARG_OF_PERICENTER":88.5102,"MEAN_ANOMALY":74.0839,"EPHEMERIS_TYPE":0,"CLASSIFICATION_TYPE":"U","NORAD_CAT_ID":68510,"ELEMENT_SET_NO":999,"REV_AT_EPOCH":330,"BSTAR":0.00094799,"MEAN_MOTION_DOT":0.00189706,"MEAN_MOTION_DDOT":0},{"OBJECT_NAME":"STARLINK-37280","OBJECT_ID":"2026-068D","EPOCH":"2026-04-12T20:00:01.999008","MEAN_MOTION":15.80776342,"ECCENTRICITY":9.75e-5,"INCLINATION":53.1596,"RA_OF_ASC_NODE":338.1859,"ARG_OF_PERICENTER":88.7996,"MEAN_ANOMALY":78.0663,"EPHEMERIS_TYPE":0,"CLASSIFICATION_TYPE":"U","NORAD_CAT_ID":68511,"ELEMENT_SET_NO":999,"REV_AT_EPOCH":330,"BSTAR":0.00090282,"MEAN_MOTION_DOT":0.00180452,"MEAN_MOTION_DDOT":0},{"OBJECT_NAME":"STARLINK-37286","OBJECT_ID":"2026-068E","EPOCH":"2026-04-12T20:00:01.999008","MEAN_MOTION":15.80771769,"ECCENTRICITY":9.57e-5,"INCLINATION":53.1597,"RA_OF_ASC_NODE":338.1769,"ARG_OF_PERICENTER":86.6048,"MEAN_ANOMALY":84.5355,"EPHEMERIS_TYPE":0,"CLASSIFICATION_TYPE":"U","NORAD_CAT_ID":68512,"ELEMENT_SET_NO":999,"REV_AT_EPOCH":330,"BSTAR":0.0009311,"MEAN_MOTION_DOT":0.00186212,"MEAN_MOTION_DDOT":0},{"OBJECT_NAME":"STARLINK-36250","OBJECT_ID":"2026-068F","EPOCH":"2026-04-12T20:00:01.999008","MEAN_MOTION":15.80777476,"ECCENTRICITY":9.32e-5,"INCLINATION":53.1596,"RA_OF_ASC_NODE":338.1684,"ARG_OF_PERICENTER":90.161,"MEAN_ANOMALY":85.2495,"EPHEMERIS_TYPE":0,"CLASSIFICATION_TYPE":"U","NORAD_CAT_ID":68513,"ELEMENT_SET_NO":999,"REV_AT_EPOCH":325,"BSTAR":0.00088352,"MEAN_MOTION_DOT":0.00176508,"MEAN_MOTION_DDOT":0},{"OBJECT_NAME":"STARLINK-37251","OBJECT_ID":"2026-068G","EPOCH":"2026-04-12T20:00:01.999008","MEAN_MOTION":15.80766488,"ECCENTRICITY":0.000108,"INCLINATION":53.1596,"RA_OF_ASC_NODE":338.1595,"ARG_OF_PERICENTER":84.6787,"MEAN_ANOMALY":95.0035,"EPHEMERIS_TYPE":0,"CLASSIFICATION_TYPE":"U","NORAD_CAT_ID":68514,"ELEMENT_SET_NO":999,"REV_AT_EPOCH":330,"BSTAR":0.0010685,"MEAN_MOTION_DOT":0.00214453,"MEAN_MOTION_DDOT":0},{"OBJECT_NAME":"STARLINK-36293","OBJECT_ID":"2026-068H","EPOCH":"2026-04-12T20:00:01.999008","MEAN_MOTION":15.80773186,"ECCENTRICITY":0.0001002,"INCLINATION":53.1596,"RA_OF_ASC_NODE":338.1511,"ARG_OF_PERICENTER":87.7597,"MEAN_ANOMALY":96.1943,"EPHEMERIS_TYPE":0,"CLASSIFICATION_TYPE":"U","NORAD_CAT_ID":68515,"ELEMENT_SET_NO":999,"REV_AT_EPOCH":325,"BSTAR":0.00096264,"MEAN_MOTION_DOT":0.00192704,"MEAN_MOTION_DDOT":0}]
